NORAD_CAT_ID,OBJECT_NAME,OBJECT_TYPE,EPOCH,MEAN_MOTION,ECCENTRICITY,INCLINATION,RA_OF_ASC_NODE,ARG_OF_PERICENTER,MEAN_ANOMALY,BSTAR,MEAN_MOTION_DOT,MEAN_MOTION_DDOT,TLE_LINE0,TLE_LINE1,TLE_LINE2,SEMIMAJOR_AXIS,PERIOD,APOGEE,PERIGEE,DECAYED
49441.0,STARLINK-3128,PAYLOAD,2024-07-27 19:14:33,15.08834193,0.0001353,53.2183,337.2317,69.5096,290.6041,-7.137e-05,-1.423e-05,0.0,0 STARLINK-3128,1 49441U 21104AK  24209.80178040 -.00001423  00000-0 -71370-4 0  9999,2 49441  53.2183 337.2317 0001353  69.5096 290.6041 15.08834193149861,6917.898,95.438,540.699,538.827,0.0
49441.0,STARLINK-3128,PAYLOAD,2024-07-28 01:36:05,15.08844541,0.0001028,53.2152,336.0437,82.2632,277.8477,-3.6375e-05,-8.67e-06,0.0,0 STARLINK-3128,1 49441U 21104AK  24210.06673254 -.00000867  00000-0 -36375-4 0  9993,2 49441  53.2152 336.0437 0001028  82.2632 277.8477 15.08844541150987,6917.867,95.437,540.443,539.02,0.0
49441.0,STARLINK-3128,PAYLOAD,2024-07-28 12:43:45,15.08876823,0.0001439,53.2159,333.9613,75.622,284.4932,-0.00027667,-4.693e-05,0.0,0 STARLINK-3128,1 49441U 21104AK  24210.53039350 -.00004693  00000-0 -27667-3 0  9992,2 49441  53.2159 333.9613 0001439  75.6220 284.4932 15.08876823151058,6917.768,95.435,540.628,538.637,0.0
49441.0,STARLINK-3128,PAYLOAD,2024-07-28 17:29:56,15.08853125,0.0001371,53.2157,333.0699,102.7377,257.3768,0.00048002,7.363e-05,0.0,0 STARLINK-3128,1 49441U 21104AK  24210.72912497  .00007363  00000-0  48002-3 0  9996,2 49441  53.2157 333.0699 0001371 102.7377 257.3768 15.08853125151080,6917.84,95.437,540.654,538.757,0.0
49441.0,STARLINK-3128,PAYLOAD,2024-07-28 20:40:42,15.08862172,0.0001338,53.2163,332.4742,89.5539,270.5607,0.00032538,4.897e-05,0.0,0 STARLINK-3128,1 49441U 21104AK  24210.86160040  .00004897  00000-0  32538-3 0  9996,2 49441  53.2163 332.4742 0001338  89.5539 270.5607 15.08862172150028,6917.813,95.436,540.603,538.752,0.0
49441.0,STARLINK-3128,PAYLOAD,2024-07-29 01:26:53,15.08826902,0.0001343,53.2159,331.5826,85.7259,274.3886,5.6613e-05,6.13e-06,0.0,0 STARLINK-3128,1 49441U 21104AK  24211.06034002  .00000613  00000-0  56613-4 0  9990,2 49441  53.2159 331.5826 0001343  85.7259 274.3886 15.08826902151134,6917.92,95.438,540.715,538.856,0.0
49441.0,STARLINK-3128,PAYLOAD,2024-07-29 14:09:57,15.0883516,5.01e-05,53.2173,329.203,88.7964,271.3086,-4.3637e-06,-3.57e-06,0.0,0 STARLINK-3128,1 49441U 21104AK  24211.59025412 -.00000357  00000-0 -43637-5 0  9993,2 49441  53.2173 329.2030 0000501  88.7964 271.3086 15.08835160151216,6917.895,95.438,540.107,539.414,0.0
49441.0,STARLINK-3128,PAYLOAD,2024-07-29 17:20:43,15.08844906,0.0001277,53.2157,328.6091,71.5549,288.5582,0.00016706,2.372e-05,0.0,0 STARLINK-3128,1 49441U 21104AK  24211.72273084  .00002372  00000-0  16706-3 0  9990,2 49441  53.2157 328.6091 0001277  71.5549 288.5582 15.08844906151239,6917.865,95.437,540.614,538.847,0.0
49441.0,STARLINK-3128,PAYLOAD,2024-07-29 20:31:30,15.08850279,0.000133,53.2139,328.014,81.9615,278.1528,0.00027102,4.029e-05,0.0,0 STARLINK-3128,1 49441U 21104AK  24211.85520916  .00004029  00000-0  27102-3 0  9996,2 49441  53.2139 328.0140 0001330  81.9615 278.1528 15.08850279150174,6917.849,95.437,540.634,538.794,0.0
49441.0,STARLINK-3128,PAYLOAD,2024-07-30 01:17:39,15.08832588,6.9e-05,53.2164,327.1208,108.9045,251.2022,-0.00015265,-2.716e-05,0.0,0 STARLINK-3128,1 49441U 21104AK  24212.05393274 -.00002716  00000-0 -15265-3 0  9994,2 49441  53.2164 327.1208 0000690 108.9045 251.2022 15.08832588151289,6917.903,95.438,540.245,539.291,0.0
49441.0,STARLINK-3128,PAYLOAD,2024-07-30 14:00:44,15.08841669,6.91e-05,53.2171,324.7405,104.5228,255.5841,0.00039904,6.069e-05,0.0,0 STARLINK-3128,1 49441U 21104AK  24212.58385392  .00006069  00000-0  39904-3 0  9993,2 49441  53.2171 324.7405 0000691 104.5228 255.5841 15.08841669150280,6917.875,95.437,540.218,539.262,0.0
49441.0,STARLINK-3128,PAYLOAD,2024-07-31 13:51:31,15.08850641,0.0001534,53.2187,320.2814,93.663,266.4537,0.00043352,6.62e-05,0.0,0 STARLINK-3128,1 49441U 21104AK  24213.57745093  .00006620  00000-0  43352-3 0  9996,2 49441  53.2187 320.2814 0001534  93.6630 266.4537 15.08850641151514,6917.848,95.437,540.774,538.652,0.0
49441.0,STARLINK-3128,PAYLOAD,2024-07-31 17:02:17,15.08855106,0.0001353,53.2175,319.6863,94.2976,265.8171,0.00045726,7e-05,0.0,0 STARLINK-3128,1 49441U 21104AK  24213.70992848  .00007000  00000-0  45726-3 0  9993,2 49441  53.2175 319.6863 0001353  94.2976 265.8171 15.08855106150456,6917.834,95.437,540.635,538.763,0.0
49441.0,STARLINK-3128,PAYLOAD,2024-08-01 13:42:18,15.08848733,0.0001315,53.2169,315.8214,93.0599,267.0543,0.00026056,3.862e-05,0.0,0 STARLINK-3128,1 49441U 21104AK  24214.57104992  .00003862  00000-0  26056-3 0  9991,2 49441  53.2169 315.8214 0001315  93.0599 267.0543 15.08848733151662,6917.854,95.437,540.628,538.809,0.0
49441.0,STARLINK-3128,PAYLOAD,2024-08-02 13:33:06,15.08841722,0.0001345,53.2168,311.3604,75.6279,284.4863,0.00018714,2.692e-05,0.0,0 STARLINK-3128,1 49441U 21104AK  24215.56465388  .00002692  00000-0  18714-3 0  9992,2 49441  53.2168 311.3604 0001345  75.6279 284.4863 15.08841722151815,6917.875,95.437,540.671,538.81,0.0
49441.0,STARLINK-3128,PAYLOAD,2024-08-03 13:23:53,15.08847017,0.0001496,53.2167,306.9054,107.1567,252.9589,0.00024063,3.544e-05,0.0,0 STARLINK-3128,1 49441U 21104AK  24216.55825356  .00003544  00000-0  24063-3 0  9998,2 49441  53.2167 306.9054 0001496 107.1567 252.9589 15.08847017150885,6917.859,95.437,540.759,538.689,0.0
49441.0,STARLINK-3128,PAYLOAD,2024-08-03 14:59:16,15.08852162,0.0001421,53.2173,306.6075,96.4681,263.6473,0.00032438,4.88e-05,0.0,0 STARLINK-3128,1 49441U 21104AK  24216.62449076  .00004880  00000-0  32438-3 0  9996,2 49441  53.2173 306.6075 0001421  96.4681 263.6473 15.08852162151976,6917.843,95.437,540.691,538.725,0.0
49441.0,STARLINK-3128,PAYLOAD,2024-08-03 22:56:11,15.0884702,0.0001201,53.2155,305.1201,82.9268,277.1861,0.00024831,3.667e-05,0.0,0 STARLINK-3128,1 49441U 21104AK  24216.95569299  .00003667  00000-0  24831-3 0  9992,2 49441  53.2155 305.1201 0001201  82.9268 277.1861 15.08847020152023,6917.859,95.437,540.555,538.893,0.0
49441.0,STARLINK-3128,PAYLOAD,2024-08-04 13:14:40,15.08842931,0.0001344,53.2165,302.4445,92.8023,267.3123,0.00016624,2.359e-05,0.0,0 STARLINK-3128,1 49441U 21104AK  24217.55185754  .00002359  00000-0  16624-3 0  9997,2 49441  53.2165 302.4445 0001344  92.8023 267.3123 15.08842931152119,6917.871,95.437,540.666,538.807,0.0
49441.0,STARLINK-3128,PAYLOAD,2024-08-04 14:50:04,15.08835256,0.0001727,53.2173,302.1432,74.336,285.7822,7.2715e-05,8.69e-06,0.0,0 STARLINK-3128,1 49441U 21104AK  24217.61810263  .00000869  00000-0  72715-4 0  9992,2 49441  53.2173 302.1432 0001727  74.3360 285.7822 15.08835256151048,6917.895,95.438,540.955,538.565,0.0
49441.0,STARLINK-3128,PAYLOAD,2024-08-05 13:05:26,15.08861321,0.0001477,53.2155,297.9813,82.0878,278.0281,0.00046192,7.075e-05,0.0,0 STARLINK-3128,1 49441U 21104AK  24218.54544959  .00007075  00000-0  46192-3 0  9996,2 49441  53.2155 297.9813 0001477  82.0878 278.0281 15.08861321152265,6917.815,95.436,540.702,538.658,0.0
49441.0,STARLINK-3128,PAYLOAD,2024-08-05 22:37:46,15.08844043,0.0001528,53.216,296.1973,81.7462,278.3704,0.00015646,2.203e-05,0.0,0 STARLINK-3128,1 49441U 21104AK  24218.94289487  .00002203  00000-0  15646-3 0  9990,2 49441  53.2160 296.1973 0001528  81.7462 278.3704 15.08844043151243,6917.868,95.437,540.79,538.676,0.0
49441.0,STARLINK-3128,PAYLOAD,2024-08-06 04:59:19,15.08824923,0.0001866,53.2155,295.0085,81.5678,278.5526,-0.0002919,-4.929e-05,0.0,0 STARLINK-3128,1 49441U 21104AK  24219.20786299 -.00004929  00000-0 -29190-3 0  9991,2 49441  53.2155 295.0085 0001866  81.5678 278.5526 15.08824923152364,6917.926,95.439,541.082,538.501,0.0
49441.0,STARLINK-3128,PAYLOAD,2024-08-07 11:11:38,15.0885156,0.000168,53.2149,289.3591,91.6162,268.5022,0.00086804,0.00013558,0.0,0 STARLINK-3128,1 49441U 21104AK  24220.46642258  .00013558  00000-0  86804-3 0  9998,2 49441  53.2149 289.3591 0001680  91.6162 268.5022 15.08851560152557,6917.845,95.437,540.872,538.548,0.0
49441.0,STARLINK-3128,PAYLOAD,2024-08-08 11:02:25,15.08861042,0.0001559,53.216,284.898,97.3844,262.7326,0.00066231,0.00010274,0.0,0 STARLINK-3128,1 49441U 21104AK  24221.46001568  .00010274  00000-0  66231-3 0  9996,2 49441  53.2160 284.8980 0001559  97.3844 262.7326 15.08861042152703,6917.816,95.436,540.76,538.603,0.0
49441.0,STARLINK-3128,PAYLOAD,2024-08-09 04:31:40,15.08848788,0.0001901,53.2157,281.6316,79.0537,281.0669,0.00035675,5.396e-05,0.0,0 STARLINK-3128,1 49441U 21104AK  24222.18865784  .00005396  00000-0  35675-3 0  9991,2 49441  53.2157 281.6316 0001901  79.0537 281.0669 15.08848788152812,6917.854,95.437,541.034,538.403,0.0
49441.0,STARLINK-3128,PAYLOAD,2024-08-09 09:17:49,15.08842915,0.0001856,53.2168,280.7333,98.311,261.8092,0.00019276,2.781e-05,0.0,0 STARLINK-3128,1 49441U 21104AK  24222.38737642  .00002781  00000-0  19276-3 0  9998,2 49441  53.2168 280.7333 0001856  98.3110 261.8092 15.08842915151768,6917.871,95.437,541.02,538.453,0.0
49441.0,STARLINK-3128,PAYLOAD,2024-08-10 12:19:23,15.08841655,0.0001604,53.2162,275.6792,93.4909,266.6266,0.00027988,4.169e-05,0.0,0 STARLINK-3128,1 49441U 21104AK  24223.51346199  .00004169  00000-0  27988-3 0  9998,2 49441  53.2162 275.6792 0001604  93.4909 266.6266 15.08841655153013,6917.875,95.437,540.85,538.631,0.0
49441.0,STARLINK-3128,PAYLOAD,2024-08-10 13:54:46,15.08843873,0.0001589,53.216,275.381,93.9697,266.1477,0.0003543,5.356e-05,0.0,0 STARLINK-3128,1 49441U 21104AK  24223.57970168  .00005356  00000-0  35430-3 0  9993,2 49441  53.2160 275.3810 0001589  93.9697 266.1477 15.08843873151943,6917.869,95.437,540.833,538.634,0.0
49441.0,STARLINK-3128,PAYLOAD,2024-08-10 20:16:19,15.08836213,0.000164,53.2161,274.1895,80.0094,280.1083,0.00032259,4.849e-05,0.0,0 STARLINK-3128,1 49441U 21104AK  24223.84466680  .00004849  00000-0  32259-3 0  9994,2 49441  53.2161 274.1895 0001640  80.0094 280.1083 15.08836213153064,6917.892,95.438,540.891,538.622,0.0
